{
  "norad_id": 62008,
  "name": "STARLINK-11433 [DTC]",
  "history": [
    {
      "epoch": "2026-03-28T21:26:17.311488Z",
      "apogee_km": 360.37901425664586,
      "perigee_km": 358.9256730952138,
      "latitude_deg": -1.790173862789589e-05,
      "longitude_deg": 158.5415863283287,
      "height_km": 360.2519627835619,
      "semi_major_axis_km": 6737.78934367593,
      "eccentricity": 0.00010785,
      "inclination_deg": 53.1574,
      "raan_deg": 306.4209,
      "arg_perigee_deg": 64.4035,
      "mean_anomaly_deg": 295.7094,
      "mean_motion_rev_day": 15.69736002
    },
    {
      "epoch": "2026-03-30T02:28:16.436064Z",
      "apogee_km": 360.0290272403172,
      "perigee_km": 358.9712182120493,
      "latitude_deg": -5.643080404074991e-05,
      "longitude_deg": 75.88925916258655,
      "height_km": 360.64681411160154,
      "semi_major_axis_km": 6737.6371227261825,
      "eccentricity": 7.85e-05,
      "inclination_deg": 53.1571,
      "raan_deg": 300.4573,
      "arg_perigee_deg": 116.1132,
      "mean_anomaly_deg": 243.9966,
      "mean_motion_rev_day": 15.69789199
    },
    {
      "epoch": "2026-03-30T05:31:39.042336Z",
      "apogee_km": 360.41462019942355,
      "perigee_km": 358.9130339071062,
      "latitude_deg": -5.778357119514709e-05,
      "longitude_deg": 29.292048561907393,
      "height_km": 360.4522758096936,
      "semi_major_axis_km": 6737.800827053265,
      "eccentricity": 0.00011143,
      "inclination_deg": 53.157,
      "raan_deg": 299.8298,
      "arg_perigee_deg": 80.4237,
      "mean_anomaly_deg": 279.6906,
      "mean_motion_rev_day": 15.69731989
    },
    {
      "epoch": "2026-03-30T07:03:20.203776Z",
      "apogee_km": 360.5023652586133,
      "perigee_km": 358.9284029416867,
      "latitude_deg": -3.886956367114011e-05,
      "longitude_deg": 5.994599874750728,
      "height_km": 360.52472477138133,
      "semi_major_axis_km": 6737.85238410015,
      "eccentricity": 0.0001168,
      "inclination_deg": 53.1576,
      "raan_deg": 299.5166,
      "arg_perigee_deg": 82.4071,
      "mean_anomaly_deg": 277.7079,
      "mean_motion_rev_day": 15.69713972
    },
    {
      "epoch": "2026-03-30T20:48:29.652768Z",
      "apogee_km": 360.2198254222285,
      "perigee_km": 358.99086121880737,
      "latitude_deg": -2.0996462402163346e-05,
      "longitude_deg": 156.31494282503533,
      "height_km": 360.4932906268269,
      "semi_major_axis_km": 6737.742343320518,
      "eccentricity": 9.12e-05,
      "inclination_deg": 53.1571,
      "raan_deg": 296.6911,
      "arg_perigee_deg": 87.6062,
      "mean_anomaly_deg": 272.506,
      "mean_motion_rev_day": 15.69752427
    },
    {
      "epoch": "2026-03-31T13:37:00.960672Z",
      "apogee_km": 359.71522090886356,
      "perigee_km": 359.0794671681606,
      "latitude_deg": 4.6088469362523806e-05,
      "longitude_deg": -99.95746448463356,
      "height_km": 360.0495472507141,
      "semi_major_axis_km": 6737.534344038512,
      "eccentricity": 4.718e-05,
      "inclination_deg": 53.1572,
      "raan_deg": 293.2394,
      "arg_perigee_deg": 325.798,
      "mean_anomaly_deg": 34.3008,
      "mean_motion_rev_day": 15.69825119
    },
    {
      "epoch": "2026-04-01T20:10:41.383200Z",
      "apogee_km": 359.77629722496386,
      "perigee_km": 358.5379825620521,
      "latitude_deg": -1.2913524822472797e-05,
      "longitude_deg": 154.09096094415312,
      "height_km": 360.65322507338453,
      "semi_major_axis_km": 6737.294139893508,
      "eccentricity": 9.19e-05,
      "inclination_deg": 53.1571,
      "raan_deg": 286.9614,
      "arg_perigee_deg": 159.958,
      "mean_anomaly_deg": 200.1474,
      "mean_motion_rev_day": 15.69909073
    },
    {
      "epoch": "2026-04-02T19:05:56.129856Z",
      "apogee_km": 361.35328795309215,
      "perigee_km": 357.8011650128901,
      "latitude_deg": -2.817585294090846e-05,
      "longitude_deg": 164.6291836379219,
      "height_km": 361.01749732435235,
      "semi_major_axis_km": 6737.714226482991,
      "eccentricity": 0.0002636,
      "inclination_deg": 53.1564,
      "raan_deg": 282.2524,
      "arg_perigee_deg": 107.3296,
      "mean_anomaly_deg": 252.801,
      "mean_motion_rev_day": 15.69762253
    },
    {
      "epoch": "2026-04-02T19:05:56.130720Z",
      "apogee_km": 361.35295106737976,
      "perigee_km": 357.8015018986016,
      "latitude_deg": -2.3756524358893387e-05,
      "longitude_deg": 164.62918332079434,
      "height_km": 361.0173969761052,
      "semi_major_axis_km": 6737.714226482991,
      "eccentricity": 0.00026355,
      "inclination_deg": 53.1564,
      "raan_deg": 282.2524,
      "arg_perigee_deg": 107.3296,
      "mean_anomaly_deg": 252.801,
      "mean_motion_rev_day": 15.69762253
    },
    {
      "epoch": "2026-04-03T19:32:55.612320Z",
      "apogee_km": 360.34463433960354,
      "perigee_km": 358.64136147613135,
      "latitude_deg": -2.2711280173486916e-05,
      "longitude_deg": 151.8565242755758,
      "height_km": 360.0024994291707,
      "semi_major_axis_km": 6737.629997907867,
      "eccentricity": 0.0001264,
      "inclination_deg": 53.1575,
      "raan_deg": 277.2317,
      "arg_perigee_deg": 61.6879,
      "mean_anomaly_deg": 298.4266,
      "mean_motion_rev_day": 15.69791689
    },
    {
      "epoch": "2026-04-04T18:28:09.041376Z",
      "apogee_km": 360.4560941054742,
      "perigee_km": 358.962987312053,
      "latitude_deg": 4.7254767437696324e-05,
      "longitude_deg": 162.4010140028539,
      "height_km": 360.1132247973552,
      "semi_major_axis_km": 6737.846540708763,
      "eccentricity": 0.0001108,
      "inclination_deg": 53.1576,
      "raan_deg": 272.5234,
      "arg_perigee_deg": 46.8997,
      "mean_anomaly_deg": 313.2114,
      "mean_motion_rev_day": 15.69716014
    },
    {
      "epoch": "2026-04-05T11:16:40.369152Z",
      "apogee_km": 360.31899395961136,
      "perigee_km": 358.6441567341508,
      "latitude_deg": -4.23148184104676e-06,
      "longitude_deg": -93.87256668604547,
      "height_km": 360.4456063239928,
      "semi_major_axis_km": 6737.618575346881,
      "eccentricity": 0.00012429,
      "inclination_deg": 53.1575,
      "raan_deg": 269.0707,
      "arg_perigee_deg": 93.4781,
      "mean_anomaly_deg": 266.6379,
      "mean_motion_rev_day": 15.69795681
    },
    {
      "epoch": "2026-04-05T20:26:46.153248Z",
      "apogee_km": 360.2351885970329,
      "perigee_km": 359.0048741631035,
      "latitude_deg": 4.383527557220816e-05,
      "longitude_deg": 126.343940434535,
      "height_km": 360.65480930583755,
      "semi_major_axis_km": 6737.757031380068,
      "eccentricity": 9.13e-05,
      "inclination_deg": 53.1572,
      "raan_deg": 267.1878,
      "arg_perigee_deg": 101.3579,
      "mean_anomaly_deg": 258.7542,
      "mean_motion_rev_day": 15.69747294
    },
    {
      "epoch": "2026-04-05T20:26:46.154112Z",
      "apogee_km": 360.2352559746032,
      "perigee_km": 359.0048067855332,
      "latitude_deg": 4.292661542443323e-05,
      "longitude_deg": 126.34393614767939,
      "height_km": 360.65482257522285,
      "semi_major_axis_km": 6737.757031380068,
      "eccentricity": 9.131e-05,
      "inclination_deg": 53.1572,
      "raan_deg": 267.1878,
      "arg_perigee_deg": 101.3579,
      "mean_anomaly_deg": 258.7542,
      "mean_motion_rev_day": 15.69747294
    },
    {
      "epoch": "2026-04-07T15:13:55.240032Z",
      "apogee_km": 360.2425885317507,
      "perigee_km": 359.04353319211987,
      "latitude_deg": 2.8836359980363175e-05,
      "longitude_deg": -165.98958967544343,
      "height_km": 360.09971513415763,
      "semi_major_axis_km": 6737.780060861935,
      "eccentricity": 8.898e-05,
      "inclination_deg": 53.1574,
      "raan_deg": 258.3993,
      "arg_perigee_deg": 40.273,
      "mean_anomaly_deg": 319.8354,
      "mean_motion_rev_day": 15.69739246
    },
    {
      "epoch": "2026-04-07T16:45:36.221760Z",
      "apogee_km": 360.3086961281206,
      "perigee_km": 359.02986049649826,
      "latitude_deg": -3.735972131390814e-05,
      "longitude_deg": 170.71294881544247,
      "height_km": 360.45788682531344,
      "semi_major_axis_km": 6737.80627831231,
      "eccentricity": 9.49e-05,
      "inclination_deg": 53.1577,
      "raan_deg": 258.0854,
      "arg_perigee_deg": 78.723,
      "mean_anomaly_deg": 281.3894,
      "mean_motion_rev_day": 15.69730084
    },
    {
      "epoch": "2026-04-08T15:40:51.888576Z",
      "apogee_km": 360.18823400916244,
      "perigee_km": 359.033114547884,
      "latitude_deg": 2.349531945788843e-05,
      "longitude_deg": -178.75071993003993,
      "height_km": 360.3991974727571,
      "semi_major_axis_km": 6737.747674278523,
      "eccentricity": 8.572e-05,
      "inclination_deg": 53.1569,
      "raan_deg": 253.3783,
      "arg_perigee_deg": 77.4844,
      "mean_anomaly_deg": 282.627,
      "mean_motion_rev_day": 15.69750564
    },
    {
      "epoch": "2026-04-09T17:39:29.448000Z",
      "apogee_km": 360.5738866628262,
      "perigee_km": 358.8570818498383,
      "latitude_deg": -3.582506189114599e-05,
      "longitude_deg": 145.18999348054408,
      "height_km": 360.7478306291409,
      "semi_major_axis_km": 6737.852484256332,
      "eccentricity": 0.0001274,
      "inclination_deg": 53.1573,
      "raan_deg": 248.0424,
      "arg_perigee_deg": 97.9819,
      "mean_anomaly_deg": 262.1343,
      "mean_motion_rev_day": 15.69713937
    },
    {
      "epoch": "2026-04-10T10:28:00.406848Z",
      "apogee_km": 360.3424371709052,
      "perigee_km": 358.7429120161569,
      "latitude_deg": -3.4951937573630567e-06,
      "longitude_deg": -111.08218410093966,
      "height_km": 359.78970518803357,
      "semi_major_axis_km": 6737.679674593531,
      "eccentricity": 0.0001187,
      "inclination_deg": 53.1574,
      "raan_deg": 244.5895,
      "arg_perigee_deg": 326.7109,
      "mean_anomaly_deg": 33.3834,
      "mean_motion_rev_day": 15.69774328
    }
  ]
}